NORAD_CAT_ID,OBJECT_NAME,OBJECT_TYPE,EPOCH,MEAN_MOTION,ECCENTRICITY,INCLINATION,RA_OF_ASC_NODE,ARG_OF_PERICENTER,MEAN_ANOMALY,BSTAR,MEAN_MOTION_DOT,MEAN_MOTION_DDOT,TLE_LINE0,TLE_LINE1,TLE_LINE2,SEMIMAJOR_AXIS,PERIOD,APOGEE,PERIGEE,DECAYED
55411.0,STARLINK-5605,PAYLOAD,2023-12-09 10:16:24,14.98346298,0.0001971,69.9998,335.3416,256.6045,103.4895,-0.00018466,-2.296e-05,0.0,0 STARLINK-5605,1 55411U 23014W   23343.42806311 -.00002296  00000-0 -18466-3 0  9995,2 55411  69.9998 335.3416 0001971 256.6045 103.4895 14.98346298 49039,6950.142,96.106,573.377,570.638,0.0
55411.0,STARLINK-5605,PAYLOAD,2023-12-09 23:05:29,14.98321532,0.0002466,70.0005,333.9957,267.9555,92.1322,0.00018277,2.088e-05,0.0,0 STARLINK-5605,1 55411U 23014W   23343.96214718  .00002088  00000-0  18277-3 0  9995,2 55411  70.0005 333.9957 0002466 267.9555  92.1322 14.98321532 48173,6950.219,96.108,573.798,570.37,0.0
55411.0,STARLINK-5605,PAYLOAD,2023-12-10 10:18:26,14.98326525,0.000244,70.0006,332.816,257.9735,102.1151,1.8093e-05,1.23e-06,0.0,0 STARLINK-5605,1 55411U 23014W   23344.42946995  .00000123  00000-0  18093-4 0  9991,2 55411  70.0006 332.8160 0002440 257.9735 102.1151 14.98326525 49180,6950.204,96.107,573.764,570.373,0.0
55411.0,STARLINK-5605,PAYLOAD,2023-12-11 03:55:54,14.98330641,0.0002666,69.9997,330.9663,263.1757,96.9099,-2.3715e-05,-3.76e-06,0.0,0 STARLINK-5605,1 55411U 23014W   23345.16382815 -.00000376  00000-0 -23715-4 0  9997,2 55411  69.9997 330.9663 0002666 263.1757  96.9099 14.98330641 48359,6950.191,96.107,573.909,570.203,0.0
55411.0,STARLINK-5605,PAYLOAD,2023-12-11 08:44:18,14.98330803,0.0002644,69.9996,330.4607,260.3654,99.7206,-2.9021e-05,-4.39e-06,0.0,0 STARLINK-5605,1 55411U 23014W   23345.36410798 -.00000439  00000-0 -29021-4 0  9997,2 55411  69.9996 330.4607 0002644 260.3654  99.7206 14.98330803 49321,6950.19,96.107,573.893,570.218,0.0
55411.0,STARLINK-5605,PAYLOAD,2023-12-12 03:57:55,14.98329264,0.0002713,69.9995,328.4412,263.1239,96.9612,3.5495e-05,3.31e-06,0.0,0 STARLINK-5605,1 55411U 23014W   23346.16522692  .00000331  00000-0  35495-4 0  9994,2 55411  69.9995 328.4412 0002713 263.1239  96.9612 14.98329264 48506,6950.195,96.107,573.946,570.175,0.0
55411.0,STARLINK-5605,PAYLOAD,2023-12-12 08:46:19,14.98330218,0.0002695,69.9995,327.9363,262.747,97.3383,4.5928e-05,4.55e-06,0.0,0 STARLINK-5605,1 55411U 23014W   23346.36550619  .00000455  00000-0  45928-4 0  9995,2 55411  69.9995 327.9363 0002695 262.7470  97.3383 14.98330218 49474,6950.192,96.107,573.93,570.184,0.0
55411.0,STARLINK-5605,PAYLOAD,2023-12-13 03:59:56,14.98332448,0.0002687,69.9996,325.9166,262.2881,97.7973,3.9991e-05,3.84e-06,0.0,0 STARLINK-5605,1 55411U 23014W   23347.16662425  .00000384  00000-0  39991-4 0  9997,2 55411  69.9996 325.9166 0002687 262.2881  97.7973 14.98332448 48651,6950.185,96.107,573.918,570.183,0.0
55411.0,STARLINK-5605,PAYLOAD,2023-12-13 08:48:20,14.98332654,0.0002706,69.9995,325.4113,264.4091,95.6759,4.0085e-05,3.85e-06,0.0,0 STARLINK-5605,1 55411U 23014W   23347.36690373  .00000385  00000-0  40085-4 0  9999,2 55411  69.9995 325.4113 0002706 264.4091  95.6759 14.98332654 49622,6950.185,96.107,573.93,570.169,0.0
55411.0,STARLINK-5605,PAYLOAD,2023-12-14 04:01:57,14.983289,0.0002772,69.9998,323.3925,255.8658,104.2193,-1.2593e-05,-2.43e-06,0.0,0 STARLINK-5605,1 55411U 23014W   23348.16802655 -.00000243  00000-0 -12593-4 0  9994,2 55411  69.9998 323.3925 0002772 255.8658 104.2193 14.98328900 48806,6950.196,96.107,573.988,570.135,0.0
55411.0,STARLINK-5605,PAYLOAD,2023-12-14 07:14:13,14.98330268,0.0002615,69.9997,323.0552,254.4027,105.6843,5.1961e-06,-3.1e-07,0.0,0 STARLINK-5605,1 55411U 23014W   23348.30154539 -.00000031  00000-0  51961-5 0  9998,2 55411  69.9997 323.0552 0002615 254.4027 105.6843 14.98330268 49762,6950.192,96.107,573.875,570.24,0.0
55411.0,STARLINK-5605,PAYLOAD,2023-12-15 04:03:57,14.98333769,0.0002682,69.9997,320.8668,257.8279,102.258,2.6559e-05,2.24e-06,0.0,0 STARLINK-5605,1 55411U 23014W   23349.16942127  .00000224  00000-0  26559-4 0  9998,2 55411  69.9997 320.8668 0002682 257.8279 102.2580 14.98333769 48955,6950.181,96.107,573.91,570.182,0.0
55411.0,STARLINK-5605,PAYLOAD,2023-12-15 07:16:14,14.98335445,0.0002612,69.9997,320.5299,261.4999,98.5864,3.6365e-05,3.41e-06,0.0,0 STARLINK-5605,1 55411U 23014W   23349.30293987  .00000341  00000-0  36365-4 0  9993,2 55411  69.9997 320.5299 0002612 261.4999  98.5864 14.98335445 49917,6950.176,96.107,573.856,570.226,0.0
55411.0,STARLINK-5605,PAYLOAD,2023-12-16 04:05:59,14.98320354,0.0002475,70.0013,318.3441,238.1096,121.9822,-3.1745e-05,-4.72e-06,0.0,0 STARLINK-5605,1 55411U 23014W   23350.17083132 -.00000472  00000-0 -31745-4 0  9993,2 55411  70.0013 318.3441 0002475 238.1096 121.9822 14.98320354 49108,6950.223,96.108,573.808,570.368,0.0
55411.0,STARLINK-5605,PAYLOAD,2023-12-16 07:18:15,14.98322119,0.0002634,70.0007,318.0066,250.7118,109.3756,-2.458e-06,-1.22e-06,0.0,0 STARLINK-5605,1 55411U 23014W   23350.30435028 -.00000122  00000-0 -24580-5 0  9995,2 55411  70.0007 318.0066 0002634 250.7118 109.3756 14.98322119 50067,6950.217,96.108,573.913,570.252,0.0
55411.0,STARLINK-5605,PAYLOAD,2023-12-17 04:08:00,14.9833158,0.0002537,70.0004,315.8182,249.4721,110.6166,-1.2911e-05,-2.47e-06,0.0,0 STARLINK-5605,1 55411U 23014W   23351.17222509 -.00000247  00000-0 -12911-4 0  9991,2 55411  70.0004 315.8182 0002537 249.4721 110.6166 14.98331580 49256,6950.188,96.107,573.816,570.29,0.0
55411.0,STARLINK-5605,PAYLOAD,2023-12-17 07:20:16,14.98325958,0.0002483,70.0004,315.4812,248.8362,111.2532,6.9862e-05,7.41e-06,0.0,0 STARLINK-5605,1 55411U 23014W   23351.30574708  .00000741  00000-0  69862-4 0  9991,2 55411  70.0004 315.4812 0002483 248.8362 111.2532 14.98325958 50210,6950.205,96.107,573.796,570.345,0.0
55411.0,STARLINK-5605,PAYLOAD,2023-12-17 21:45:28,14.98333138,0.000275,69.9998,313.9655,260.3856,99.6993,0.00011874,1.324e-05,0.0,0 STARLINK-5605,1 55411U 23014W   23351.90658024  .00001324  00000-0  11874-3 0  9998,2 55411  69.9998 313.9655 0002750 260.3856  99.6993 14.98333138 50300,6950.183,96.107,573.959,570.137,0.0
55411.0,STARLINK-5605,PAYLOAD,2023-12-18 04:10:00,14.9833609,0.0002679,70.0,313.2923,258.4699,101.6159,0.0001513,1.713e-05,0.0,0 STARLINK-5605,1 55411U 23014W   23352.17361689  .00001713  00000-0  15130-3 0  9997,2 55411  70.0000 313.2923 0002679 258.4699 101.6159 14.98336090 49408,6950.174,96.107,573.901,570.177,0.0
55411.0,STARLINK-5605,PAYLOAD,2023-12-18 07:22:16,14.9833855,0.0002628,70.0001,312.9559,256.2725,103.8142,0.00017634,2.012e-05,0.0,0 STARLINK-5605,1 55411U 23014W   23352.30713394  .00002012  00000-0  17634-3 0  9990,2 55411  70.0001 312.9559 0002628 256.2725 103.8142 14.98338550 50366,6950.166,96.106,573.858,570.205,0.0
55411.0,STARLINK-5605,PAYLOAD,2023-12-18 21:47:29,14.9832641,0.0002376,70.0013,311.4427,238.9465,121.1461,5.3058e-06,-3e-07,0.0,0 STARLINK-5605,1 55411U 23014W   23352.90798508 -.00000030  00000-0  53058-5 0  9997,2 55411  70.0013 311.4427 0002376 238.9465 121.1461 14.98326410 50454,6950.204,96.107,573.72,570.418,0.0
55411.0,STARLINK-5605,PAYLOAD,2023-12-19 04:12:02,14.98322995,0.0002406,70.0013,310.7693,243.42,116.6713,-4.4427e-05,-6.23e-06,0.0,0 STARLINK-5605,1 55411U 23014W   23353.17502922 -.00000623  00000-0 -44427-4 0  9998,2 55411  70.0013 310.7693 0002406 243.4200 116.6713 14.98322995 49555,6950.215,96.107,573.752,570.407,0.0
55411.0,STARLINK-5605,PAYLOAD,2023-12-19 07:24:18,14.98322008,0.0002403,70.001,310.4318,248.9367,111.1535,-5.6749e-05,-7.7e-06,0.0,0 STARLINK-5605,1 55411U 23014W   23353.30855092 -.00000770  00000-0 -56749-4 0  9995,2 55411  70.0010 310.4318 0002403 248.9367 111.1535 14.98322008 50519,6950.218,96.108,573.753,570.412,0.0
55411.0,STARLINK-5605,PAYLOAD,2023-12-20 04:14:02,14.98333571,0.0002743,70.0003,308.2436,256.8708,103.2145,-6.0888e-05,-8.19e-06,0.0,0 STARLINK-5605,1 55411U 23014W   23354.17642304 -.00000819  00000-0 -60888-4 0  9994,2 55411  70.0003 308.2436 0002743 256.8708 103.2145 14.98333571 49706,6950.182,96.107,573.953,570.14,0.0
55411.0,STARLINK-5605,PAYLOAD,2023-12-20 07:26:18,14.98335084,0.0002784,70.0,307.9061,261.2982,98.7862,-4.8654e-05,-6.74e-06,0.0,0 STARLINK-5605,1 55411U 23014W   23354.30994180 -.00000674  00000-0 -48654-4 0  9997,2 55411  70.0000 307.9061 0002784 261.2982  98.7862 14.98335084 50664,6950.177,96.107,573.977,570.107,0.0
55411.0,STARLINK-5605,PAYLOAD,2023-12-20 21:51:31,14.98328668,0.0002874,69.9999,306.3912,263.3704,96.7128,8.5443e-05,9.27e-06,0.0,0 STARLINK-5605,1 55411U 23014W   23354.91078206  .00000927  00000-0  85443-4 0  9992,2 55411  69.9999 306.3912 0002874 263.3704  96.7128 14.98328668 50754,6950.197,96.107,574.059,570.065,0.0
55411.0,STARLINK-5605,PAYLOAD,2023-12-21 04:16:03,14.98331189,0.0002647,70.0004,305.7176,256.3578,103.7286,0.0001154,1.284e-05,0.0,0 STARLINK-5605,1 55411U 23014W   23355.17781981  .00001284  00000-0  11540-3 0  9995,2 55411  70.0004 305.7176 0002647 256.3578 103.7286 14.98331189 49853,6950.189,96.107,573.894,570.214,0.0
55411.0,STARLINK-5605,PAYLOAD,2023-12-21 07:28:19,14.9835046,0.0002617,69.9999,305.3811,253.7456,106.3416,-0.00014433,-1.816e-05,0.0,0 STARLINK-5605,1 55411U 23014W   23355.31133268 -.00001816  00000-0 -14433-3 0  9997,2 55411  69.9999 305.3811 0002617 253.7456 106.3416 14.98350460 49877,6950.13,96.106,573.813,570.176,0.0
55411.0,STARLINK-5605,PAYLOAD,2023-12-21 21:53:32,14.98325488,0.0002469,70.0019,303.8682,241.6539,118.4372,4.3106e-05,4.21e-06,0.0,0 STARLINK-5605,1 55411U 23014W   23355.91218559  .00000421  00000-0  43106-4 0  9999,2 55411  70.0019 303.8682 0002469 241.6539 118.4372 14.98325488 50908,6950.207,96.107,573.788,570.356,0.0
55411.0,STARLINK-5605,PAYLOAD,2023-12-22 04:18:05,14.98323922,0.0002632,70.0013,303.1945,244.3047,115.784,1.1283e-05,4.2e-07,0.0,0 STARLINK-5605,1 55411U 23014W   23356.17922782  .00000042  00000-0  11283-4 0  9998,2 55411  70.0013 303.1945 0002632 244.3047 115.7840 14.98323922 50005,6950.212,96.107,573.906,570.247,0.0
